NORAD_CAT_ID,OBJECT_NAME,OBJECT_TYPE,EPOCH,MEAN_MOTION,ECCENTRICITY,INCLINATION,RA_OF_ASC_NODE,ARG_OF_PERICENTER,MEAN_ANOMALY,BSTAR,MEAN_MOTION_DOT,MEAN_MOTION_DDOT,TLE_LINE0,TLE_LINE1,TLE_LINE2,SEMIMAJOR_AXIS,PERIOD,APOGEE,PERIGEE,DECAYED
53926.0,STARLINK-5014,PAYLOAD,2023-02-17 23:29:33,15.08846815,0.0001479,53.2172,277.5251,72.7067,287.4087,0.0007784,0.00012124,0.0,0 STARLINK-5014,1 53926U 22119AS  23048.97886374  .00012124  00000-0  77840-3 0  9998,2 53926  53.2172 277.5251 0001479  72.7067 287.4087 15.08846815 23047,6917.86,95.437,540.748,538.701,0.0
53926.0,STARLINK-5014,PAYLOAD,2023-02-18 23:20:20,15.08851078,0.0001484,53.2168,273.0651,73.5808,286.5347,0.00038967,5.921e-05,0.0,0 STARLINK-5014,1 53926U 22119AS  23049.97246041  .00005921  00000-0  38967-3 0  9994,2 53926  53.2168 273.0651 0001484  73.5808 286.5347 15.08851078 23197,6917.847,95.437,540.738,538.685,0.0
53926.0,STARLINK-5014,PAYLOAD,2023-02-19 15:14:11,15.08843262,0.000141,53.2164,270.0913,74.658,285.4568,5.4701e-05,5.83e-06,0.0,0 STARLINK-5014,1 53926U 22119AS  23050.63486056  .00000583  00000-0  54701-4 0  9995,2 53926  53.2164 270.0913 0001410  74.6580 285.4568 15.08843262 23727,6917.87,95.437,540.711,538.76,0.0
53926.0,STARLINK-5014,PAYLOAD,2023-02-19 20:00:21,15.08844024,0.0001395,53.2162,269.1997,77.091,283.0237,6.9782e-05,8.23e-06,0.0,0 STARLINK-5014,1 53926U 22119AS  23050.83358000  .00000823  00000-0  69782-4 0  9996,2 53926  53.2162 269.1997 0001395  77.0910 283.0237 15.08844024 23322,6917.868,95.437,540.698,538.768,0.0
53926.0,STARLINK-5014,PAYLOAD,2023-02-20 07:08:03,15.088384,0.00015,53.2172,267.1185,88.6358,271.4806,-1.0748e-05,-4.59e-06,0.0,0 STARLINK-5014,1 53926U 22119AS  23051.29726192 -.00000459  00000-0 -10748-4 0  9993,2 53926  53.2172 267.1185 0001500  88.6358 271.4806 15.08838400 23821,6917.885,95.438,540.788,538.713,0.0
53926.0,STARLINK-5014,PAYLOAD,2023-02-21 02:12:40,15.08848785,0.0001317,53.2161,263.549,80.6325,279.4816,9.0699e-05,1.156e-05,0.0,0 STARLINK-5014,1 53926U 22119AS  23052.09213492  .00001156  00000-0  90699-4 0  9992,2 53926  53.2161 263.5490 0001317  80.6325 279.4816 15.08848785 23512,6917.854,95.437,540.63,538.807,0.0
53926.0,STARLINK-5014,PAYLOAD,2023-02-21 06:58:50,15.088429,0.0001296,53.2161,262.6563,81.3645,278.7494,7.4428e-06,-1.69e-06,0.0,0 STARLINK-5014,1 53926U 22119AS  23052.29085734 -.00000169  00000-0  74428-5 0  9997,2 53926  53.2161 262.6563 0001296  81.3645 278.7494 15.08842900 23979,6917.872,95.437,540.633,538.84,0.0
53926.0,STARLINK-5014,PAYLOAD,2023-02-21 19:41:55,15.08844071,0.0001373,53.2166,260.2775,87.8574,272.2576,9.1784e-05,1.173e-05,0.0,0 STARLINK-5014,1 53926U 22119AS  23052.82077712  .00001173  00000-0  91784-4 0  9991,2 53926  53.2166 260.2775 0001373  87.8574 272.2576 15.08844071 23624,6917.868,95.437,540.683,538.783,0.0
53926.0,STARLINK-5014,PAYLOAD,2023-02-21 21:17:18,15.08845647,0.0001345,53.2164,259.9807,85.1719,274.9427,0.00010103,1.321e-05,0.0,0 STARLINK-5014,1 53926U 22119AS  23052.88701642  .00001321  00000-0  10103-3 0  9993,2 53926  53.2164 259.9807 0001345  85.1719 274.9427 15.08845647 24067,6917.863,95.437,540.659,538.798,0.0
53926.0,STARLINK-5014,PAYLOAD,2023-02-22 02:03:27,15.08850162,0.0001316,53.2162,259.088,82.2201,277.894,0.00016326,2.312e-05,0.0,0 STARLINK-5014,1 53926U 22119AS  23053.08573358  .00002312  00000-0  16326-3 0  9991,2 53926  53.2162 259.0880 0001316  82.2201 277.8940 15.08850162 24092,6917.849,95.437,540.625,538.804,0.0
53926.0,STARLINK-5014,PAYLOAD,2023-02-22 19:32:42,15.08838726,0.0001221,53.2152,255.8153,91.1405,268.9727,7.3261e-05,8.78e-06,0.0,0 STARLINK-5014,1 53926U 22119AS  23053.81437978  .00000878  00000-0  73261-4 0  9996,2 53926  53.2152 255.8153 0001221  91.1405 268.9727 15.08838726 23778,6917.884,95.438,540.594,538.905,0.0
53926.0,STARLINK-5014,PAYLOAD,2023-02-22 21:08:05,15.0884134,0.0001135,53.216,255.519,88.7001,271.4121,5.6684e-05,6.14e-06,0.0,0 STARLINK-5014,1 53926U 22119AS  23053.88061873  .00000614  00000-0  56684-4 0  9998,2 53926  53.2160 255.5190 0001135  88.7001 271.4121 15.08841340 24216,6917.876,95.437,540.526,538.956,0.0
53926.0,STARLINK-5014,PAYLOAD,2023-02-23 13:01:56,15.08843833,0.0001324,53.2164,252.5455,88.4909,271.6235,0.00012933,1.771e-05,0.0,0 STARLINK-5014,1 53926U 22119AS  23054.54301836  .00001771  00000-0  12933-3 0  9991,2 53926  53.2164 252.5455 0001324  88.4909 271.6235 15.08843833 24313,6917.869,95.437,540.65,538.818,0.0
53926.0,STARLINK-5014,PAYLOAD,2023-02-23 19:23:29,15.08849737,0.0001291,53.2159,251.3564,87.187,272.927,0.00027407,4.078e-05,0.0,0 STARLINK-5014,1 53926U 22119AS  23054.80797627  .00004078  00000-0  27407-3 0  9992,2 53926  53.2159 251.3564 0001291  87.1870 272.9270 15.08849737 24357,6917.851,95.437,540.609,538.823,0.0
53926.0,STARLINK-5014,PAYLOAD,2023-02-24 00:09:38,15.08855952,0.0001241,53.2157,250.4641,84.3635,275.7498,0.00050434,7.751e-05,0.0,0 STARLINK-5014,1 53926U 22119AS  23055.00669469  .00007751  00000-0  50434-3 0  9994,2 53926  53.2157 250.4641 0001241  84.3635 275.7498 15.08855952 23958,6917.832,95.437,540.555,538.838,0.0
53926.0,STARLINK-5014,PAYLOAD,2023-02-24 12:52:43,15.08839566,0.0001252,53.2151,248.0838,94.3949,265.7187,7.1103e-05,8.44e-06,0.0,0 STARLINK-5014,1 53926U 22119AS  23055.53661879  .00000844  00000-0  71103-4 0  9992,2 53926  53.2151 248.0838 0001252  94.3949 265.7187 15.08839566 24468,6917.882,95.438,540.613,538.881,0.0
53926.0,STARLINK-5014,PAYLOAD,2023-02-24 19:14:16,15.08841094,0.0001216,53.2162,246.8957,89.1839,270.9293,0.00014367,1.999e-05,0.0,0 STARLINK-5014,1 53926U 22119AS  23055.80157933  .00001999  00000-0  14367-3 0  9993,2 53926  53.2162 246.8957 0001216  89.1839 270.9293 15.08841094 24070,6917.877,95.437,540.583,538.901,0.0
53926.0,STARLINK-5014,PAYLOAD,2023-02-24 20:49:39,15.08840212,0.0001237,53.2164,246.5986,95.2357,264.8777,0.00010494,1.383e-05,0.0,0 STARLINK-5014,1 53926U 22119AS  23055.86781920  .00001383  00000-0  10494-3 0  9992,2 53926  53.2164 246.5986 0001237  95.2357 264.8777 15.08840212 24516,6917.88,95.438,540.6,538.889,0.0
53926.0,STARLINK-5014,PAYLOAD,2023-02-25 12:43:31,15.08834789,0.0001318,53.2162,243.6242,90.2446,269.8697,9.8993e-05,1.288e-05,0.0,0 STARLINK-5014,1 53926U 22119AS  23056.53022375  .00001288  00000-0  98993-4 0  9994,2 53926  53.2162 243.6242 0001318  90.2446 269.8697 15.08834789 24182,6917.896,95.438,540.673,538.85,0.0
53926.0,STARLINK-5014,PAYLOAD,2023-02-25 19:05:03,15.08838903,0.0001269,53.2162,242.4351,88.707,271.4067,9.7046e-05,1.257e-05,0.0,0 STARLINK-5014,1 53926U 22119AS  23056.79518374  .00001257  00000-0  97046-4 0  9995,2 53926  53.2162 242.4351 0001269  88.7070 271.4067 15.08838903 24654,6917.884,95.438,540.627,538.871,0.0
53926.0,STARLINK-5014,PAYLOAD,2023-02-25 23:51:13,15.08843741,0.000125,53.2161,241.5432,86.7623,273.3512,0.00021319,3.107e-05,0.0,0 STARLINK-5014,1 53926U 22119AS  23056.99390276  .00003107  00000-0  21319-3 0  9991,2 53926  53.2161 241.5432 0001250  86.7623 273.3512 15.08843741 24253,6917.869,95.437,540.599,538.869,0.0
53926.0,STARLINK-5014,PAYLOAD,2023-02-26 12:34:18,15.08847679,0.0001249,53.2163,239.1643,87.6107,272.5028,0.00034741,5.247e-05,0.0,0 STARLINK-5014,1 53926U 22119AS  23057.52382211  .00005247  00000-0  34741-3 0  9991,2 53926  53.2163 239.1643 0001249  87.6107 272.5028 15.08847679 24760,6917.857,95.437,540.586,538.858,0.0
53926.0,STARLINK-5014,PAYLOAD,2023-02-26 20:31:13,15.08857266,0.0001257,53.2167,237.6776,86.4645,273.6491,0.00051633,7.943e-05,0.0,0 STARLINK-5014,1 53926U 22119AS  23057.85501783  .00007943  00000-0  51633-3 0  9998,2 53926  53.2167 237.6776 0001257  86.4645 273.6491 15.08857266 24812,6917.828,95.436,540.562,538.823,0.0
53926.0,STARLINK-5014,PAYLOAD,2023-02-27 12:25:05,15.08845335,0.0001104,53.2165,234.7032,87.2534,272.8585,0.00016449,2.331e-05,0.0,0 STARLINK-5014,1 53926U 22119AS  23058.51742055  .00002331  00000-0  16449-3 0  9993,2 53926  53.2165 234.7032 0001104  87.2534 272.8585 15.08845335 24482,6917.864,95.437,540.493,538.965,0.0
53926.0,STARLINK-5014,PAYLOAD,2023-02-27 18:46:37,15.08877468,0.0001009,53.2165,233.5138,78.7296,281.3809,0.001696,0.00026835,0.0,0 STARLINK-5014,1 53926U 22119AS  23058.78237492  .00026835  00000-0  16960-2 0  9998,2 53926  53.2165 233.5138 0001009  78.7296 281.3809 15.08877468 24521,6917.766,95.435,540.329,538.933,0.0
53926.0,STARLINK-5014,PAYLOAD,2023-02-27 20:22:00,15.08863175,0.0001185,53.2164,233.2168,93.1949,266.9179,0.0010335,0.00016209,0.0,0 STARLINK-5014,1 53926U 22119AS  23058.84861619  .00016209  00000-0  10335-2 0  9993,2 53926  53.2164 233.2168 0001185  93.1949 266.9179 15.08863175 24968,6917.81,95.436,540.494,538.855,0.0
53926.0,STARLINK-5014,PAYLOAD,2023-02-27 23:32:46,15.0886674,0.0001175,53.2163,232.622,92.5839,267.5287,0.0011725,0.00018435,0.0,0 STARLINK-5014,1 53926U 22119AS  23058.98109474  .00018435  00000-0  11725-2 0  9999,2 53926  53.2163 232.6220 0001175  92.5839 267.5287 15.08866740 24552,6917.799,95.436,540.476,538.851,0.0
53926.0,STARLINK-5014,PAYLOAD,2023-02-28 04:18:56,15.08842067,0.0001326,53.2162,231.7304,84.5827,275.5316,0.00041483,6.321e-05,0.0,0 STARLINK-5014,1 53926U 22119AS  23059.17982060  .00006321  00000-0  41483-3 0  9997,2 53926  53.2162 231.7304 0001326  84.5827 275.5316 15.08842067 24581,6917.874,95.437,540.656,538.822,0.0
53926.0,STARLINK-5014,PAYLOAD,2023-02-28 18:37:25,15.08834258,0.0001205,53.2161,229.0539,85.0556,275.0573,0.00016603,2.355e-05,0.0,0 STARLINK-5014,1 53926U 22119AS  23059.77598556  .00002355  00000-0  16603-3 0  9995,2 53926  53.2161 229.0539 0001205  85.0556 275.0573 15.08834258 24674,6917.898,95.438,540.597,538.929,0.0
53926.0,STARLINK-5014,PAYLOAD,2023-02-28 21:48:11,15.08831861,0.0001218,53.2163,228.46,83.3491,276.764,0.00015833,2.232e-05,0.0,0 STARLINK-5014,1 53926U 22119AS  23059.90846620  .00002232  00000-0  15833-3 0  9996,2 53926  53.2163 228.4600 0001218  83.3491 276.7640 15.08831861 25122,6917.905,95.438,540.613,538.928,0.0
